{
  "type": "FeatureCollection",
  "features": [
    {
      "type": "Feature",
      "properties": {
        "norad_id": 67138,
        "name": "KUIPER-00183",
        "group": "last-30-days",
        "lat": 49.41826773485585,
        "lon": 175.0059887501717,
        "alt_km": 451.27071981930203,
        "timestamp": "2025-12-25T22:42:15.712777+00:00",
        "meta_object_name": "KUIPER-00183",
        "meta_object_id": "2025-301F",
        "meta_epoch": "2025-12-25T18:00:02.000160",
        "meta_mean_motion": 15.3406518,
        "meta_eccentricity": 0.0011225,
        "meta_inclination": 51.8609,
        "meta_ra_of_asc_node": 62.4913,
        "meta_arg_of_pericenter": 147.1515,
        "meta_mean_anomaly": 314.8347,
        "meta_ephemeris_type": 0,
        "meta_classification_type": "U",
        "meta_norad_cat_id": 67138,
        "meta_element_set_no": 999,
        "meta_rev_at_epoch": 253,
        "meta_bstar": 0.00057752,
        "meta_mean_motion_dot": 0.00019029,
        "meta_mean_motion_ddot": 0,
        "tle_line1": "1 67138U 25301F   25359.75002315  .00019029  00000+0  57752-3 0  9992",
        "tle_line2": "2 67138  51.8609  62.4913 0011225 147.1515 314.8347 15.34065180  2539"
      },
      "geometry": {
        "type": "Point",
        "coordinates": [
          175.0059887501717,
          49.41826773485585
        ]
      }
    },
    {
      "type": "Feature",
      "properties": {
        "norad_id": 67139,
        "name": "KUIPER-00184",
        "group": "last-30-days",
        "lat": 42.254877020840134,
        "lon": -164.0310788483995,
        "alt_km": 451.5474541294125,
        "timestamp": "2025-12-25T22:42:15.712787+00:00",
        "meta_object_name": "KUIPER-00184",
        "meta_object_id": "2025-301G",
        "meta_epoch": "2025-12-25T18:00:02.000160",
        "meta_mean_motion": 15.34425227,
        "meta_eccentricity": 0.0008533,
        "meta_inclination": 51.8623,
        "meta_ra_of_asc_node": 62.4594,
        "meta_arg_of_pericenter": 144.3336,
        "meta_mean_anomaly": 333.5401,
        "meta_ephemeris_type": 0,
        "meta_classification_type": "U",
        "meta_norad_cat_id": 67139,
        "meta_element_set_no": 999,
        "meta_rev_at_epoch": 264,
        "meta_bstar": 0.00053741,
        "meta_mean_motion_dot": 0.0001787,
        "meta_mean_motion_ddot": 0,
        "tle_line1": "1 67139U 25301G   25359.75002315  .00017870  00000+0  53741-3 0  9999",
        "tle_line2": "2 67139  51.8623  62.4594 0008533 144.3336 333.5401 15.34425227  2642"
      },
      "geometry": {
        "type": "Point",
        "coordinates": [
          -164.0310788483995,
          42.254877020840134
        ]
      }
    },
    {
      "type": "Feature",
      "properties": {
        "norad_id": 67140,
        "name": "KUIPER-00186",
        "group": "last-30-days",
        "lat": 31.308010217052807,
        "lon": -147.06038295887257,
        "alt_km": 451.83312507067694,
        "timestamp": "2025-12-25T22:42:15.712797+00:00",
        "meta_object_name": "KUIPER-00186",
        "meta_object_id": "2025-301H",
        "meta_epoch": "2025-12-25T18:00:02.000160",
        "meta_mean_motion": 15.34997716,
        "meta_eccentricity": 0.0007495,
        "meta_inclination": 51.868,
        "meta_ra_of_asc_node": 62.4247,
        "meta_arg_of_pericenter": 130.1796,
        "meta_mean_anomaly": 4.6332,
        "meta_ephemeris_type": 0,
        "meta_classification_type": "U",
        "meta_norad_cat_id": 67140,
        "meta_element_set_no": 999,
        "meta_rev_at_epoch": 130,
        "meta_bstar": 0.00056918,
        "meta_mean_motion_dot": 0.00019302,
        "meta_mean_motion_ddot": 0,
        "tle_line1": "1 67140U 25301H   25359.75002315  .00019302  00000+0  56918-3 0  9992",
        "tle_line2": "2 67140  51.8680  62.4247 0007495 130.1796   4.6332 15.34997716  1309"
      },
      "geometry": {
        "type": "Point",
        "coordinates": [
          -147.06038295887257,
          31.308010217052807
        ]
      }
    },
    {
      "type": "Feature",
      "properties": {
        "norad_id": 67141,
        "name": "KUIPER-00187",
        "group": "last-30-days",
        "lat": 10.482650465406541,
        "lon": -126.9347585946406,
        "alt_km": 455.9323368295545,
        "timestamp": "2025-12-25T22:42:15.712809+00:00",
        "meta_object_name": "KUIPER-00187",
        "meta_object_id": "2025-301J",
        "meta_epoch": "2025-12-25T18:00:02.000160",
        "meta_mean_motion": 15.3581457,
        "meta_eccentricity": 0.0004301,
        "meta_inclination": 51.871,
        "meta_ra_of_asc_node": 62.3677,
        "meta_arg_of_pericenter": 114.62,
        "meta_mean_anomaly": 47.5489,
        "meta_ephemeris_type": 0,
        "meta_classification_type": "U",
        "meta_norad_cat_id": 67141,
        "meta_element_set_no": 999,
        "meta_rev_at_epoch": 215,
        "meta_bstar": 0.00054498,
        "meta_mean_motion_dot": 0.0001895,
        "meta_mean_motion_ddot": 0,
        "tle_line1": "1 67141U 25301J   25359.75002315  .00018950  00000+0  54498-3 0  9992",
        "tle_line2": "2 67141  51.8710  62.3677 0004301 114.6200  47.5489 15.35814570  2150"
      },
      "geometry": {
        "type": "Point",
        "coordinates": [
          -126.9347585946406,
          10.482650465406541
        ]
      }
    },
    {
      "type": "Feature",
      "properties": {
        "norad_id": 67142,
        "name": "KUIPER-00188",
        "group": "last-30-days",
        "lat": 33.625377471730616,
        "lon": -150.00727334062051,
        "alt_km": 451.8355503865123,
        "timestamp": "2025-12-25T22:42:15.712819+00:00",
        "meta_object_name": "KUIPER-00188",
        "meta_object_id": "2025-301K",
        "meta_epoch": "2025-12-25T18:00:02.000160",
        "meta_mean_motion": 15.34905887,
        "meta_eccentricity": 0.0007276,
        "meta_inclination": 51.8691,
        "meta_ra_of_asc_node": 62.431,
        "meta_arg_of_pericenter": 134.8296,
        "meta_mean_anomaly": 356.6616,
        "meta_ephemeris_type": 0,
        "meta_classification_type": "U",
        "meta_norad_cat_id": 67142,
        "meta_element_set_no": 999,
        "meta_rev_at_epoch": 130,
        "meta_bstar": 0.0006002,
        "meta_mean_motion_dot": 0.00020316,
        "meta_mean_motion_ddot": 0,
        "tle_line1": "1 67142U 25301K   25359.75002315  .00020316  00000+0  60020-3 0  9990",
        "tle_line2": "2 67142  51.8691  62.4310 0007276 134.8296 356.6616 15.34905887  1300"
      },
      "geometry": {
        "type": "Point",
        "coordinates": [
          -150.00727334062051,
          33.625377471730616
        ]
      }
    },
    {
      "type": "Feature",
      "properties": {
        "norad_id": 67143,
        "name": "KUIPER-00191",
        "group": "last-30-days",
        "lat": 27.959369033300447,
        "lon": -143.17384263582733,
        "alt_km": 452.6353825469487,
        "timestamp": "2025-12-25T22:42:15.712829+00:00",
        "meta_object_name": "KUIPER-00191",
        "meta_object_id": "2025-301L",
        "meta_epoch": "2025-12-25T18:00:02.000160",
        "meta_mean_motion": 15.35136173,
        "meta_eccentricity": 0.0006561,
        "meta_inclination": 51.8671,
        "meta_ra_of_asc_node": 62.4157,
        "meta_arg_of_pericenter": 131.8058,
        "meta_mean_anomaly": 7.6627,
        "meta_ephemeris_type": 0,
        "meta_classification_type": "U",
        "meta_norad_cat_id": 67143,
        "meta_element_set_no": 999,
        "meta_rev_at_epoch": 239,
        "meta_bstar": 0.000573,
        "meta_mean_motion_dot": 0.00019518,
        "meta_mean_motion_ddot": 0,
        "tle_line1": "1 67143U 25301L   25359.75002315  .00019518  00000+0  57300-3 0  9990",
        "tle_line2": "2 67143  51.8671  62.4157 0006561 131.8058   7.6627 15.35136173  2397"
      },
      "geometry": {
        "type": "Point",
        "coordinates": [
          -143.17384263582733,
          27.959369033300447
        ]
      }
    },
    {
      "type": "Feature",
      "properties": {
        "norad_id": 67144,
        "name": "KUIPER-00196",
        "group": "last-30-days",
        "lat": 4.2660920039939905,
        "lon": -121.95625747923522,
        "alt_km": 457.3822228353647,
        "timestamp": "2025-12-25T22:42:15.712839+00:00",
        "meta_object_name": "KUIPER-00196",
        "meta_object_id": "2025-301M",
        "meta_epoch": "2025-12-25T18:00:02.000160",
        "meta_mean_motion": 15.36015195,
        "meta_eccentricity": 0.0003799,
        "meta_inclination": 51.8729,
        "meta_ra_of_asc_node": 62.3487,
        "meta_arg_of_pericenter": 99.1755,
        "meta_mean_anomaly": 70.7938,
        "meta_ephemeris_type": 0,
        "meta_classification_type": "U",
        "meta_norad_cat_id": 67144,
        "meta_element_set_no": 999,
        "meta_rev_at_epoch": 209,
        "meta_bstar": 0.00054614,
        "meta_mean_motion_dot": 0.00019115,
        "meta_mean_motion_ddot": 0,
        "tle_line1": "1 67144U 25301M   25359.75002315  .00019115  00000+0  54614-3 0  9999",
        "tle_line2": "2 67144  51.8729  62.3487 0003799  99.1755  70.7938 15.36015195  2091"
      },
      "geometry": {
        "type": "Point",
        "coordinates": [
          -121.95625747923522,
          4.2660920039939905
        ]
      }
    }
  ]
}